satname,norad_id,inclination_deg,eccentricity,mean_motion_rev_per_day,perigee_km,apogee_km,l1,l2
STARLINK-1496,45780,53.0548,0.0002797,15.38024118,450.04237863706294,453.86313084586527,1 45780U 20038BC  26011.44602963  .00072126  00000+0  18919-2 0  9998,2 45780  53.0548  89.5720 0002797  23.6046 336.5085 15.38024118308170
STARLINK-1497,45781,53.0312,0.0007118,15.82168172,319.539564262348,329.0811683330094,1 45781U 20038BD  26011.66667824  .00307671  00000+0  14180-2 0  9992,2 45781  53.0312   7.0239 0007118  63.0565 277.4656 15.82168172  5669
STARLINK-1513,45786,53.0543,0.0001347,15.06396992,546.2879313478197,548.1536227329552,1 45786U 20038BJ  26011.59040986  .00000048  00000+0  22106-4 0  9990,2 45786  53.0543  92.9465 0001347  56.9822 303.1296 15.06396992308155
STARLINK-1522,46027,53.0557,0.0001431,15.06403547,546.2096710924734,548.1917027384679,1 46027U 20055A   26011.43834971  .00002625  00000+0  19501-3 0  9993,2 46027  53.0557  23.6287 0001431  88.3322 271.7831 15.06403547300253
STARLINK-1523,46028,53.0544,0.000135,15.06404473,546.2629286668316,548.1327690760272,1 46028U 20055B   26011.32039775  .00001291  00000+0  10552-3 0  9996,2 46028  53.0544  24.1603 0001350  87.8330 272.2814 15.06404473300257
STARLINK-1526,46029,53.0544,0.0001399,15.06405345,546.2263223600676,548.1640303030053,1 46029U 20055C   26011.31303039  .00002040  00000+0  15580-3 0  9992,2 46029  53.0544  24.1901 0001399  87.8382 272.2767 15.06405345300244
STARLINK-1555,46032,53.0553,0.0001457,15.06400293,546.2016367815704,548.2196830896755,1 46032U 20055F   26011.29828545  .00001350  00000+0  10950-3 0  9996,2 46032  53.0553  24.2574 0001457  88.0271 272.0885 15.06400293300246
STARLINK-1556,46033,53.0555,0.0001504,15.0640149,546.1654195703486,548.2485630429337,1 46033U 20055G   26011.34620216  .00002079  00000+0  15845-3 0  9995,2 46033  53.0555  24.0429 0001504  94.3276 265.7885 15.06401490300221
STARLINK-1557,46034,53.0568,0.0001303,15.063957,546.3223622160012,548.127111484624,1 46034U 20055H   26011.28355879  .00000985  00000+0  85011-4 0  9996,2 46034  53.0568  24.3227 0001303  91.7811 268.3328 15.06395700300214
STARLINK-1558,46035,53.055,0.000142,15.06406019,546.2097137558867,548.1765075073063,1 46035U 20055J   26011.42360476  .00001544  00000+0  12254-3 0  9992,2 46035  53.0550  23.6962 0001420  88.0980 272.0171 15.06406019300269
STARLINK-1560,46036,53.0541,0.000131,15.06393628,546.3238640499494,548.1383104888146,1 46036U 20055K   26011.34252338  .00001533  00000+0  12182-3 0  9999,2 46036  53.0541  24.0597 0001310  88.8736 271.2403 15.06393628300253
STARLINK-1567,46038,53.055,0.0001129,15.06421466,546.3639040966236,547.9276329457562,1 46038U 20055M   26011.28723365  .00007544  00000+0  52448-3 0  9994,2 46038  53.0550  24.3074 0001129  88.4665 271.6453 15.06421466300232
STARLINK-1569,46039,53.0552,0.0001328,15.06401651,546.2868122491691,548.1261834822035,1 46039U 20055N   26011.29459878  .00001356  00000+0  10993-3 0  9995,2 46039  53.0552  24.2747 0001328  91.6039 268.5103 15.06401651300234
STARLINK-1582,46043,53.0558,0.0001544,15.06417785,546.0877846097446,548.2263154123884,1 46043U 20055S   26011.30197360  .00009159  00000+0  63265-3 0  9996,2 46043  53.0558  24.2420 0001544  86.8865 273.2301 15.06417785300234
STARLINK-1591,46045,53.0558,0.0001364,15.0638505,546.3127541208796,548.2020017071745,1 46045U 20055U   26011.26142292 -.00004111  00000+0 -25738-3 0  9995,2 46045  53.0558  24.4234 0001364  93.2418 266.8727 15.06385050300214
STARLINK-1524,46047,53.0548,0.000133,15.06404305,546.277294161353,548.1194333681142,1 46047U 20055W   26011.28077678 -.00000326  00000+0 -30247-5 0  9991,2 46047  53.0548  14.3365 0001330  81.6079 278.5061 15.06404305300378
STARLINK-1527,46048,53.0552,0.0001756,15.06413375,545.9544817843771,548.3866498014831,1 46048U 20055X   26011.27709219  .00002798  00000+0  20657-3 0  9999,2 46048  53.0552  14.3523 0001756  84.8503 275.2687 15.06413375300352
STARLINK-1540,46051,53.0571,0.0001541,15.06397532,546.1519246347443,548.28631939155,1 46051U 20055AA  26011.37661787  .00000796  00000+0  72304-4 0  9994,2 46051  53.0571  13.9091 0001541 102.9603 257.1558 15.06397532300405
STARLINK-1541,46052,53.0546,0.0001312,15.06403275,546.2929161392512,548.1101249670446,1 46052U 20055AB  26011.29551882  .00000979  00000+0  84624-4 0  9991,2 46052  53.0546  14.2689 0001312  91.6835 268.4304 15.06403275300352
STARLINK-1543,46053,53.0566,0.0001458,15.06402966,546.1927530960011,548.2121820847515,1 46053U 20055AC  26011.29920589  .00000558  00000+0  56321-4 0  9992,2 46053  53.0566  14.2525 0001458  86.1559 273.9597 15.06402966300381
STARLINK-1548,46054,53.0559,0.0001527,15.06402727,546.1457006400924,548.2606995371989,1 46054U 20055AD  26011.30657589  .00000474  00000+0  50723-4 0  9999,2 46054  53.0559  14.2208 0001527  97.2064 262.9098 15.06402727300382
STARLINK-1554,46055,53.0555,0.0001132,15.06385208,546.4729390700513,548.0408482475759,1 46055U 20055AE  26011.29182707 -.00005013  00000+0 -31801-3 0  9994,2 46055  53.0555  14.2864 0001132  97.8997 262.2120 15.06385208300383
STARLINK-1564,46058,53.0548,0.0001694,15.06406929,546.0171711843523,548.3634720809214,1 46058U 20055AH  26011.36929294 -.00000207  00000+0  49899-5 0  9992,2 46058  53.0548  14.4016 0001694  96.4698 263.6484 15.06406929300387
STARLINK-1570,46059,53.0553,0.0001421,15.06400392,546.2262646556355,548.1944483743564,1 46059U 20055AJ  26011.26603830 -.00000745  00000+0 -31127-4 0  9999,2 46059  53.0553  14.4040 0001421  92.5349 267.5803 15.06400392300330
STARLINK-1572,46060,53.056,0.0001429,15.06401099,546.2185578360077,548.1978214912124,1 46060U 20055AK  26011.26234969  .00001847  00000+0  14282-3 0  9998,2 46060  53.0560  14.4178 0001429  93.8763 266.2389 15.06401099300345
STARLINK-1573,46061,53.0558,0.0001518,15.06388872,546.194390777131,548.2969369538805,1 46061U 20055AL  26011.39137506 -.00001400  00000+0 -75130-4 0  9999,2 46061  53.0558  13.8772 0001518  86.2033 273.9130 15.06388872300398
STARLINK-1577,46063,53.0568,0.0001511,15.06404924,546.1500487417643,548.242884515379,1 46063U 20055AN  26011.41715224  .00001035  00000+0  88336-4 0  9997,2 46063  53.0568  13.7235 0001511  87.7671 272.3492 15.06404924300392
STARLINK-1583,46064,53.0547,0.0001159,15.06408172,546.3838670534406,547.989157043532,1 46064U 20055AP  26011.38398269  .00003545  00000+0  25670-3 0  9999,2 46064  53.0547  13.8725 0001159  99.5270 260.5850 15.06408172300395
